UFO 10 (USA 146)        
1 25967U 99063A   26064.55968014 -.00000192  00000+0  00000+0 0  9993
2 25967   9.8499  27.7851 0005298 295.4637  18.7027  1.00273577 96305
ASIASTAR                
1 26107U 00016A   26064.96054303 -.00000337  00000+0  00000+0 0  9993
2 26107   8.8905  59.2465 0004601 295.9632 259.2815  1.00271002 94880
USA 149 (DSP 20)        
1 26356U 00024A   26065.04960779  .00000092  00000+0  00000+0 0  9998
2 26356  13.0930  12.5762 0002311   8.1503 355.5636  1.00277077 31881
TDRS 8                  
1 26388U 00034A   26064.88531604 -.00000199  00000+0  00000+0 0  9995
2 26388  12.5213  32.1832 0006146 308.7491 226.1757  1.00276226 94145
NSS-11                  
1 26554U 00059A   26065.22961262  .00000020  00000+0  00000+0 0  9995
2 26554   1.8606  82.6490 0003172 270.9226  69.0344  1.00272700 40251
USA 153                 
1 26575U 00065A   26065.25171534 -.00000328  00000+0  00000+0 0  9995
2 26575  11.4485  36.2570 0002660 347.5056   5.2118  1.00269384 31898
AMC-6                   
1 26580U 00067A   26065.22454971  .00000083  00000+0  00000+0 0  9996
2 26580   0.0443 308.8885 0003091  40.6892 120.1377  1.00272794 92864
USA 157 (MILSTAR-2 2)   
1 26715U 01009A   26065.05264113  .00000107  00000+0  00000+0 0  9998
2 26715  11.4293  20.3920 0037921 181.8138 190.5527  1.00267346 31913
INTELSAT 10 (IS-10)     
1 26766U 01019A   26064.32553090 -.00000288  00000+0  00000+0 0  9990
2 26766   8.8280  60.3105 0005935 267.1133  91.9502  0.99041792 44549
USA 159 (DSP 21)        
1 26880U 01033A   26064.18780862 -.00000302  00000+0  00000+0 0  9993
2 26880  12.6899  17.1640 0002002 244.3968 280.0364  1.00279118 31927
INTELSAT 902 (IS-902)   
1 26900U 01039A   26064.92986290 -.00000287  00000+0  00000+0 0  9999
2 26900   5.8564  73.0406 0004602 273.8940 101.3804  1.00271990 89667
USA 164 (MILSTAR-2 3)   
1 27168U 02001A   26065.08609461  .00000094  00000+0  00000+0 0  9991
2 27168  11.0573  22.5213 0099608   4.8562 186.3454  1.00270511 31928
INTELSAT 904 (IS-904)   
1 27380U 02007A   26064.29173074 -.00000231  00000+0  00000+0 0  9995
2 27380   6.6608  70.4300 0006148 306.2151 219.9159  1.00273205 50729
DIRECTV 5 (TEMPO 1)     
1 27426U 02023A   26065.13194147 -.00000061  00000+0  00000+0 0  9993
2 27426   4.6147  76.5984 0003644 279.5674 105.0863  1.00272618 87095
INTELSAT 905 (IS-905)   
1 27438U 02027A   26064.18725306  .00000088  00000+0  00000+0 0  9999
2 27438   6.4927  71.0512 0003173 279.5390 102.5539  1.00273968 50320
GALAXY 3C (G-3C)        
1 27445U 02030A   26065.20621512 -.00000157  00000+0  00000+0 0  9997
2 27445   3.4686  79.4341 0001154  23.7034  40.1890  1.00271890 45468
INTELSAT 906 (IS-906)   
1 27513U 02041A   26065.16643495  .00000009  00000+0  00000+0 0  9999
2 27513   5.5407  74.1878 0003200 260.5331 313.2446  1.00273082 85998
